190P/Mueller,e,2.1741,335.5641,50.3272,4.232248,0.1132003,0.52193527,251.4304,05/10.0/2022,2000,g 13.0,4.0
# From MPEC 2022-C56
191P/McNaught,e,8.8416,98.2317,284.0618,3.636053,0.1421539,0.38597430,59.0975,05/10.0/2022,2000,g 13.0,4.0
# From MPC 75724
192P/Shoemaker-Levy,e,24.5766,51.6113,313.0173,6.472351,0.0598564,0.77344032,315.3876,05/10.0/2022,2000,g 15.0,4.0
# From MPEC 2022-CN4
193P/LINEAR-NEAT,e,10.6885,335.1729,8.0747,3.576396,0.1457256,0.39381680,37.5721,05/10.0/2022,2000,g 14.0,4.0
# From MPC 98566
194P/LINEAR,e,11.9705,349.6152,129.2478,4.107316,0.1184042,0.57051635,285.1215,05/10.0/2022,2000,g 16.0,4.0
# From MPEC 2021-S45
195P/Hill,e,36.3323,243.1251,249.2447,6.506359,0.0593878,0.31387814,290.2753,05/10.0/2022,2000,g  8.5,4.0
# From MPC 92985
196P/Tichy,e,19.2966,24.1178,12.0891,3.807238,0.1326750,0.42871472,337.1192,05/10.0/2022,2000,g 13.5,4.0
# From MPC 94676
197P/LINEAR,e,25.5280,66.3676,188.7492,2.868012,0.2029236,0.62940181,317.0366,05/10.0/2022,2000,g 16.5,2.0
# From NK 1596
198P/ODAS,e,1.3386,358.2449,69.1761,3.597435,0.1444490,0.44386472,179.5317,05/10.0/2022,2000,g  9.0,4.0
# From MPEC 2022-J42
199P/Shoemaker,e,24.9323,92.3608,191.7367,5.888347,0.0689785,0.50571463,328.6534,05/10.0/2022,2000,g 10.0,4.0
# From MPEC 2022-C56
200P/Larsen,e,12.0982,234.7650,134.2044,4.943956,0.0896587,0.33270450,91.0288,05/10.0/2022,2000,g  9.0,4.0
# From MPC 93588
201P/LONEOS,e,5.7394,19.7454,41.5451,3.354483,0.1604227,0.63715439,55.8749,05/10.0/2022,2000,g 14.0,4.0
# From MPEC 2021-N06
202P/Scotti,e,2.1173,177.4148,276.2666,4.093699,0.1189954,0.26026165,271.5888,05/10.0/2022,2000,g 13.5,4.0
# From MPEC 2021-S45
203P/Korlevic,e,2.9726,290.3214,154.7760,4.670113,0.0976592,0.31539838,77.7697,05/10.0/2022,2000,g 14.5,2.0
# From MPC 98566
204P/LINEAR-NEAT,e,6.5961,108.5034,356.6246,3.581895,0.1453901,0.48783464,332.2562,05/10.0/2022,2000,g 14.0,4.0
# From MPEC 2021-W31
205P/Giacobini,e,15.3062,179.6022,154.1777,3.543025,0.1477892,0.56815806,17.1889,05/10.0/2022,2000,g 13.0,4.0
# From MPC 75725
206P/Barnard-Boattini,e,33.6359,202.3359,189.5045,3.489035,0.1512328,0.55147307,65.2481,05/10.0/2022,2000,g 19.0,4.0
# From MPC 75725
207P/NEAT,e,10.1963,198.2037,273.0607,3.875438,0.1291882,0.75865062,278.3763,05/10.0/2022,2000,g 16.0,4.0
# From MPEC 2020-W26
208P/McMillan,e,4.4121,36.3398,310.5277,4.043593,0.1212140,0.37411555,258.6166,05/10.0/2022,2000,g 12.5,4.0
# From MPC 90771
209P/LINEAR,e,21.2574,62.7718,152.4451,2.959900,0.1935479,0.67308936,205.7142,05/10.0/2022,2000,g 17.0,2.0
# From MPC105242
210P/Christensen,e,10.2674,93.8176,345.8931,3.163500,0.1751670,0.83339397,133.4918,05/10.0/2022,2000,g 13.5,4.0
# From MPEC 2022-ED3
211P/Hill,e,18.9213,117.1312,4.2814,3.546096,0.1475973,0.34361245,338.2131,05/10.0/2022,2000,g 12.5,4.0
# From MPEC 2021-F20
212P/NEAT,e,22.1738,98.1595,14.0686,3.894306,0.1282505,0.58732346,268.1443,05/10.0/2022,2000,g 17.0,2.0
# From MPEC 2022-GA9
213P/VanNess,e,10.3815,311.2943,5.7056,3.347221,0.1609450,0.40824796,271.3877,05/10.0/2022,2000,g 10.5,4.0
# From MPC 92986
214P/LINEAR,e,15.1835,348.2490,190.1960,3.619599,0.1431243,0.48587896,340.0703,05/10.0/2022,2000,g 13.0,4.0
# From MPEC 2022-F14
215P/NEAT,e,10.5789,56.6844,262.3051,4.329500,0.1094076,0.16654528,98.7576,05/10.0/2022,2000,g 11.0,4.0
# From MPC100284
216P/LINEAR,e,9.0654,359.8137,151.4835,3.863665,0.1297791,0.44808872,281.2674,05/10.0/2022,2000,g 13.0,4.0
# From MPEC 2021-N06
217P/LINEAR,e,12.8630,125.4577,246.8837,3.949565,0.1255684,0.68914222,220.5412,05/10.0/2022,2000,g 12.0,4.0
# From MPEC 2020-K19
218P/LINEAR,e,2.7292,175.9849,59.6530,3.090624,0.1813990,0.62243877,105.7891,05/10.0/2022,2000,g 16.0,4.0
# From MPC100284
219P/LINEAR,e,11.5363,230.9538,107.5136,3.648147,0.1414476,0.35414721,268.8388,05/10.0/2022,2000,g 11.0,4.0
# From MPEC 2021-BE3
220P/McNaught,e,8.1288,150.1019,180.5736,3.116673,0.1791296,0.50162652,92.3164,05/10.0/2022,2000,g 15.0,4.0
# From MPEC 2021-J28
221P/LINEAR,e,11.4275,229.6927,40.1405,3.457186,0.1533275,0.49289119,21.9095,05/10.0/2022,2000,g 14.5,4.0
# From MPC 92277
222P/LINEAR,e,5.0986,6.7761,346.2636,2.899096,0.1996688,0.71478455,213.5003,05/10.0/2022,2000,g 20.0,4.0
# From MPEC 2021-S45
223P/Skiff,e,27.0268,346.7709,37.8270,4.158843,0.1162105,0.41632921,139.2064,05/10.0/2022,2000,g 12.0,4.0
# From MPC 75727
224P/LINEAR-NEAT,e,13.3036,40.0414,16.6538,3.445815,0.1540871,0.40624068,337.9765,05/10.0/2022,2000,g 15.5,4.0
# From MPC 75727
225P/LINEAR,e,21.3662,14.2029,3.8901,3.648954,0.1414007,0.63837839,295.6508,05/10.0/2022,2000,g 18.0,4.0
# From MPC106349
226P/Pigott-LINEAR-Kowalski,e,44.0383,54.0066,341.0505,3.766806,0.1348168,0.52881463,279.6077,05/10.0/2022,2000,g 12.5,4.0
# From MPC102956
227P/Catalina-LINEAR,e,7.2107,38.7151,102.4535,3.484416,0.1515337,0.53129502,259.6252,05/10.0/2022,2000,g 16.5,2.0
# From MPEC 2022-HC2
228P/LINEAR,e,7.9129,30.9843,115.0030,4.168592,0.1158030,0.17621903,91.7361,05/10.0/2022,2000,g 14.1,4.0
# From MPC106349
229P/Gibbs,e,26.0924,157.9110,224.0002,3.927961,0.1266057,0.37763604,229.5358,05/10.0/2022,2000,g 13.0,4.0
# From MPEC 2022-GA9
230P/LINEAR,e,15.4702,106.9843,313.4315,3.451061,0.1537358,0.54542104,7.9428,05/10.0/2022,2000,g 13.0,4.0
# From MPC112394
231P/LINEAR-NEAT,e,12.3185,133.0125,44.0449,4.040385,0.1213584,0.24498746,128.3668,05/10.0/2022,2000,g 14.1,4.0
# From MPC112394
232P/Hill,e,14.6392,56.0175,53.3000,4.477081,0.1040427,0.33437744,117.6144,05/10.0/2022,2000,g 11.5,4.0
# From MPEC 2021-N06
233P/La Sagra,e,11.2860,74.9154,26.9944,3.029330,0.1869322,0.41192598,109.4329,05/10.0/2022,2000,g 15.0,4.0
# From MPC110497
234P/LINEAR,e,11.5353,179.5712,357.2355,3.798268,0.1331453,0.25576576,240.4733,05/10.0/2022,2000,g 12.0,4.0
# From MPC110497
235P/LINEAR,e,9.1069,202.7504,333.5224,3.939957,0.1260280,0.33155732,189.9454,05/10.0/2022,2000,g 12.0,4.0
# From MPC107688
236P/LINEAR,e,16.3437,245.5910,119.2887,3.729077,0.1368681,0.50928359,223.0656,05/10.0/2022,2000,g 14.0,4.0
# From MPEC 2022-J42
237P/LINEAR,e,14.0146,245.3698,25.2456,3.512098,0.1497456,0.43427453,304.6492,05/10.0/2022,2000,g 14.5,2.0
# From MPC107688
238P/Read,e,1.2641,51.6241,324.2431,3.167882,0.1748037,0.25206244,355.3583,05/10.0/2022,2000,g 14.5,4.0
# From MPEC 2021-F20
239P/LINEAR,e,11.2991,255.9174,220.4050,4.468809,0.1043317,0.63009901,126.9531,05/10.0/2022,2000,g 17.5,2.0
# From MPEC 2021-F20
240P/NEAT,e,23.5209,74.9078,351.9427,3.865311,0.1296962,0.44942632,188.7243,05/10.0/2022,2000,g 12.1,4.0
# From MPEC 2022-J42
241P/LINEAR,e,21.1054,305.4834,111.4398,4.919115,0.0903386,0.61017663,26.0298,05/10.0/2022,2000,g 13.5,4.0
# From MPEC 2021-S45
242P/Spahr,e,32.5073,180.3793,245.6806,5.493375,0.0765500,0.27851307,286.1332,05/10.0/2022,2000,g  8.0,4.0
# From MPC111774
243P/NEAT,e,7.6406,87.6167,283.5832,3.830369,0.1314750,0.36047827,177.7098,05/10.0/2022,2000,g 12.5,4.0
# From MPEC 2022-ED3
244P/Scotti,e,2.2594,353.9904,93.0684,4.894931,0.0910090,0.19906630,342.6203,05/10.0/2022,2000,g  9.0,4.0
# From MPEC 2022-CN4
245P/WISE,e,21.1947,316.6554,316.8804,4.046124,0.1211003,0.45660589,187.9508,05/10.0/2022,2000,g 14.0,4.0
# From MPEC 2021-WD8
246P/NEAT,e,15.9673,78.6079,176.7250,4.028455,0.1218979,0.28873095,53.5993,05/10.0/2022,2000,g 10.5,4.0
# From MPEC 2021-F20
247P/LINEAR,e,13.6562,54.0178,47.4303,3.968238,0.1246831,0.62436975,156.5709,05/10.0/2022,2000,g 16.5,2.0
# From MPC 75730
248P/Gibbs,e,6.3505,207.7969,209.8508,5.991256,0.0672090,0.63877266,277.7124,05/10.0/2022,2000,g 14.0,4.0
# From MPEC 2021-S45
249P/LINEAR,e,8.3895,239.1218,65.6901,2.763303,0.2145662,0.81992614,145.8001,05/10.0/2022,2000,g 15.5,4.0
# From MPC110497
250P/Larson,e,13.1557,73.4120,46.1460,3.766150,0.1348521,0.39937715,211.1195,05/10.0/2022,2000,g 14.5,4.0
# From MPC104795
251P/LINEAR,e,23.3874,219.3580,31.2819,3.511901,0.1497582,0.50468308,263.5215,05/10.0/2022,2000,g 16.5,2.0
# From MPEC 2021-S45
252P/LINEAR,e,10.4106,190.9340,343.3354,3.049891,0.1850451,0.67177340,56.0175,05/10.0/2022,2000,g 17.5,4.0
# From MPEC 2020-FB5
253P/PANSTARRS,e,4.9435,146.8851,230.6633,3.465558,0.1527722,0.41433907,223.2968,05/10.0/2022,2000,g 14.5,4.0
# From MPEC 2022-GA9
254P/McNaught,e,32.5712,129.1786,219.5857,4.613845,0.0994511,0.31978263,58.3659,05/10.0/2022,2000,g 11.0,4.0
# From MPEC 2021-UA9
255P/Levy,e,13.4110,275.6714,186.0020,2.943117,0.1952058,0.71161596,336.5186,05/10.0/2022,2000,g 14.1,4.0
# From MPEC 2022-C56
256P/LINEAR,e,27.6200,81.3419,124.2165,4.639000,0.0986433,0.41798096,329.7806,05/10.0/2022,2000,g 14.0,2.0
# From MPEC 2021-Y10
257P/Catalina,e,20.2206,207.7258,117.7093,3.763000,0.1350214,0.43030209,81.8567,05/10.0/2022,2000,g 11.5,4.0
# From MPEC 2021-U31
258P/PANSTARRS,e,6.7462,126.2433,25.8835,4.396221,0.1069264,0.20841522,73.8710,05/10.0/2022,2000,g 13.0,4.0
# From MPC106349
259P/Garradd,e,15.8907,51.4408,257.6458,2.731072,0.2183757,0.33886659,19.7873,05/10.0/2022,2000,g 15.5,4.0
# From MPEC 2022-H30
260P/McNaught,e,15.0587,349.3386,18.4247,3.623125,0.1429154,0.60931507,138.9913,05/10.0/2022,2000,g 13.3,4.0
# From MPEC 2021-J28
261P/Larson,e,6.0734,291.1398,67.2070,3.490426,0.1511424,0.42334568,159.5546,05/10.0/2022,2000,g 14.0,4.0
# From MPC 82322
262P/McNaught-Russell,e,29.2629,217.8697,171.0352,6.872795,0.0547021,0.81608366,188.4146,05/10.0/2022,2000,g 13.5,4.0
# From MPC 89018
263P/Gibbs,e,11.5210,105.5268,34.9881,3.043024,0.1856718,0.59355823,310.6935,05/10.0/2022,2000,g  9.0,4.0
# From MPC114608
264P/Larsen,e,25.2372,220.3968,346.7205,3.888980,0.1285140,0.37558032,129.7508,05/10.0/2022,2000,g 13.0,4.0
# From MPC 79870
265P/LINEAR,e,14.3650,342.9258,33.4584,4.254539,0.1123118,0.64759235,51.0892,05/10.0/2022,2000,g 14.5,4.0
# From MPEC 2021-F20
266P/Christensen,e,3.4271,4.9985,97.7101,3.532586,0.1484448,0.33960664,111.4507,05/10.0/2022,2000,g 14.7,4.0
# From MPC114608
267P/LONEOS,e,6.1414,228.5849,114.2040,3.211293,0.1712712,0.61440683,237.4336,05/10.0/2022,2000,g 19.5,4.0
# From MPC 92277
268P/Bernardi,e,15.8959,127.0589,359.8015,4.559058,0.1012492,0.47791448,263.2445,05/10.0/2022,2000,g 14.0,4.0
